SL-14 R/B               
1 13553U 82092B   26065.27797814  .00000654  00000+0  70758-4 0  9997
2 13553  82.5700 144.5903 0019204 315.6120 104.2493 14.86662436328429
SL-3 R/B                
1 13819U 83010B   26065.26654981  .00019712  00000+0  39772-3 0  9994
2 13819  81.1067   6.4427 0018308  62.0592 298.2503 15.46205289357415
COSMOS 1536             
1 14699U 84013A   26065.37087893  .00006639  00000+0  27411-3 0  9990
2 14699  82.5430 111.1497 0012689 296.6091  63.3845 15.23772397272114
SL-14 R/B               
1 14820U 84027B   26065.46094810  .00000682  00000+0  75156-4 0  9990
2 14820  82.5381 248.0417 0017638 348.9313  11.1512 14.85972534247154
SL-8 R/B                
1 15483U 85006B   26065.51907428  .00000236  00000+0  87052-4 0  9991
2 15483  74.0432 266.9833 0018572 185.5554 195.1557 14.37779856153577
SL-12 R/B(2)            
1 15772U 85042D   26065.54824927  .00000096  00000+0  64534-4 0  9991
2 15772  71.1063  94.3664 0033404 133.2995  28.2916 14.21981659113942
SL-14 R/B               
1 15945U 85069B   26065.37939222  .00000774  00000+0  84757-4 0  9990
2 15945  82.5279  28.0452 0018177 198.8982 161.1562 14.86428618172346
SL-16 R/B               
1 16182U 85097B   26065.38731164 -.00000123  00000+0 -37693-4 0  9998
2 16182  71.0034 147.5065 0009967 263.7562 167.3141 14.16599577 86769
SL-14 R/B               
1 16496U 86006B   26065.02081603  .00000725  00000+0  74583-4 0  9999
2 16496  82.5233 263.1912 0075122 285.2217  74.0702 14.86808640148669
COSMOS 1743             
1 16719U 86034A   26065.30313161  .00039175  00000+0  51579-3 0  9996
2 16719  82.5295  77.3847 0001903 320.6210  39.4907 15.58271388179726
