CCSDS_OMM_VERS = 2.0
CREATION_DATE  = 
ORIGINATOR     = 

OBJECT_NAME    = SL-14 R/B
OBJECT_ID      = 1982-092B
CENTER_NAME    = EARTH
REF_FRAME      = TEME
TIME_SYSTEM    = UTC
MEAN_ELEMENT_THEORY = SGP/SGP4

EPOCH          = 2026-03-06T06:40:17.311296
MEAN_MOTION    = 14.86662436
ECCENTRICITY   = .00192042
INCLINATION    = 82.5700
RA_OF_ASC_NODE = 144.5903
ARG_OF_PERICENTER = 315.6120
MEAN_ANOMALY   = 104.2493

EPHEMERIS_TYPE = 0
CLASSIFICATION_TYPE = U
NORAD_CAT_ID   = 13553
ELEMENT_SET_NO = 999
REV_AT_EPOCH   = 32842
BSTAR          = .70757614E-4
MEAN_MOTION_DOT = .654E-5
MEAN_MOTION_DDOT = 0

CCSDS_OMM_VERS = 2.0
CREATION_DATE  = 
ORIGINATOR     = 

OBJECT_NAME    = SL-3 R/B
OBJECT_ID      = 1983-010B
CENTER_NAME    = EARTH
REF_FRAME      = TEME
TIME_SYSTEM    = UTC
MEAN_ELEMENT_THEORY = SGP/SGP4

EPOCH          = 2026-03-06T06:23:49.903584
MEAN_MOTION    = 15.46205289
ECCENTRICITY   = .0018308
INCLINATION    = 81.1067
RA_OF_ASC_NODE = 6.4427
ARG_OF_PERICENTER = 62.0592
MEAN_ANOMALY   = 298.2503

EPHEMERIS_TYPE = 0
CLASSIFICATION_TYPE = U
NORAD_CAT_ID   = 13819
ELEMENT_SET_NO = 999
REV_AT_EPOCH   = 35741
BSTAR          = .39771912E-3
MEAN_MOTION_DOT = .19712E-3
MEAN_MOTION_DDOT = 0

CCSDS_OMM_VERS = 2.0
CREATION_DATE  = 
ORIGINATOR     = 

OBJECT_NAME    = COSMOS 1536
OBJECT_ID      = 1984-013A
CENTER_NAME    = EARTH
REF_FRAME      = TEME
TIME_SYSTEM    = UTC
MEAN_ELEMENT_THEORY = SGP/SGP4

EPOCH          = 2026-03-06T08:54:03.939552
MEAN_MOTION    = 15.23772397
ECCENTRICITY   = .00126895
INCLINATION    = 82.5430
RA_OF_ASC_NODE = 111.1497
ARG_OF_PERICENTER = 296.6091
MEAN_ANOMALY   = 63.3845

EPHEMERIS_TYPE = 0
CLASSIFICATION_TYPE = U
NORAD_CAT_ID   = 14699
ELEMENT_SET_NO = 999
REV_AT_EPOCH   = 27211
BSTAR          = .27410677E-3
MEAN_MOTION_DOT = .6639E-4
MEAN_MOTION_DDOT = 0

CCSDS_OMM_VERS = 2.0
CREATION_DATE  = 
ORIGINATOR     = 

OBJECT_NAME    = SL-14 R/B
OBJECT_ID      = 1984-027B
CENTER_NAME    = EARTH
REF_FRAME      = TEME
TIME_SYSTEM    = UTC
MEAN_ELEMENT_THEORY = SGP/SGP4

EPOCH          = 2026-03-06T11:03:45.915840
MEAN_MOTION    = 14.85972534
ECCENTRICITY   = .00176383
INCLINATION    = 82.5381
RA_OF_ASC_NODE = 248.0417
ARG_OF_PERICENTER = 348.9313
MEAN_ANOMALY   = 11.1512

EPHEMERIS_TYPE = 0
CLASSIFICATION_TYPE = U
NORAD_CAT_ID   = 14820
ELEMENT_SET_NO = 999
REV_AT_EPOCH   = 24715
BSTAR          = .7515592E-4
MEAN_MOTION_DOT = .682E-5
MEAN_MOTION_DDOT = 0

CCSDS_OMM_VERS = 2.0
CREATION_DATE  = 
ORIGINATOR     = 

OBJECT_NAME    = SL-8 R/B
OBJECT_ID      = 1985-006B
CENTER_NAME    = EARTH
REF_FRAME      = TEME
TIME_SYSTEM    = UTC
MEAN_ELEMENT_THEORY = SGP/SGP4

EPOCH          = 2026-03-06T12:27:28.017792
MEAN_MOTION    = 14.37779856
ECCENTRICITY   = .00185725
INCLINATION    = 74.0432
RA_OF_ASC_NODE = 266.9833
ARG_OF_PERICENTER = 185.5554
MEAN_ANOMALY   = 195.1557

EPHEMERIS_TYPE = 0
CLASSIFICATION_TYPE = U
NORAD_CAT_ID   = 15483
ELEMENT_SET_NO = 999
REV_AT_EPOCH   = 15357
BSTAR          = .87051788E-4
MEAN_MOTION_DOT = .236E-5
MEAN_MOTION_DDOT = 0

CCSDS_OMM_VERS = 2.0
CREATION_DATE  = 
ORIGINATOR     = 

OBJECT_NAME    = SL-12 R/B(2)
OBJECT_ID      = 1985-042D
CENTER_NAME    = EARTH
REF_FRAME      = TEME
TIME_SYSTEM    = UTC
MEAN_ELEMENT_THEORY = SGP/SGP4

EPOCH          = 2026-03-06T13:09:28.736928
MEAN_MOTION    = 14.21981659
ECCENTRICITY   = .00334041
INCLINATION    = 71.1063
RA_OF_ASC_NODE = 94.3664
ARG_OF_PERICENTER = 133.2995
MEAN_ANOMALY   = 28.2916

EPHEMERIS_TYPE = 0
CLASSIFICATION_TYPE = U
NORAD_CAT_ID   = 15772
ELEMENT_SET_NO = 999
REV_AT_EPOCH   = 11394
BSTAR          = .64533696E-4
MEAN_MOTION_DOT = .96E-6
MEAN_MOTION_DDOT = 0

CCSDS_OMM_VERS = 2.0
CREATION_DATE  = 
ORIGINATOR     = 

OBJECT_NAME    = SL-14 R/B
OBJECT_ID      = 1985-069B
CENTER_NAME    = EARTH
REF_FRAME      = TEME
TIME_SYSTEM    = UTC
MEAN_ELEMENT_THEORY = SGP/SGP4

EPOCH          = 2026-03-06T09:06:19.487808
MEAN_MOTION    = 14.86428618
ECCENTRICITY   = .00181774
INCLINATION    = 82.5279
RA_OF_ASC_NODE = 28.0452
ARG_OF_PERICENTER = 198.8982
MEAN_ANOMALY   = 161.1562

EPHEMERIS_TYPE = 0
CLASSIFICATION_TYPE = U
NORAD_CAT_ID   = 15945
ELEMENT_SET_NO = 999
REV_AT_EPOCH   = 17234
BSTAR          = .84756802E-4
MEAN_MOTION_DOT = .774E-5
MEAN_MOTION_DDOT = 0

CCSDS_OMM_VERS = 2.0
CREATION_DATE  = 
ORIGINATOR     = 

OBJECT_NAME    = SL-16 R/B
OBJECT_ID      = 1985-097B
CENTER_NAME    = EARTH
REF_FRAME      = TEME
TIME_SYSTEM    = UTC
MEAN_ELEMENT_THEORY = SGP/SGP4

EPOCH          = 2026-03-06T09:17:43.725696
MEAN_MOTION    = 14.16599577
ECCENTRICITY   = .00099677
INCLINATION    = 71.0034
RA_OF_ASC_NODE = 147.5065
ARG_OF_PERICENTER = 263.7562
MEAN_ANOMALY   = 167.3141

EPHEMERIS_TYPE = 0
CLASSIFICATION_TYPE = U
NORAD_CAT_ID   = 16182
ELEMENT_SET_NO = 999
REV_AT_EPOCH   = 8676
BSTAR          = -.37692816E-4
MEAN_MOTION_DOT = -.123E-5
MEAN_MOTION_DDOT = 0

CCSDS_OMM_VERS = 2.0
CREATION_DATE  = 
ORIGINATOR     = 

OBJECT_NAME    = SL-14 R/B
OBJECT_ID      = 1986-006B
CENTER_NAME    = EARTH
REF_FRAME      = TEME
TIME_SYSTEM    = UTC
MEAN_ELEMENT_THEORY = SGP/SGP4

EPOCH          = 2026-03-06T00:29:58.504992
MEAN_MOTION    = 14.86808640
ECCENTRICITY   = .00751226
INCLINATION    = 82.5233
RA_OF_ASC_NODE = 263.1912
ARG_OF_PERICENTER = 285.2217
MEAN_ANOMALY   = 74.0702

EPHEMERIS_TYPE = 0
CLASSIFICATION_TYPE = U
NORAD_CAT_ID   = 16496
ELEMENT_SET_NO = 999
REV_AT_EPOCH   = 14866
BSTAR          = .74582639E-4
MEAN_MOTION_DOT = .725E-5
MEAN_MOTION_DDOT = 0

CCSDS_OMM_VERS = 2.0
CREATION_DATE  = 
ORIGINATOR     = 

OBJECT_NAME    = COSMOS 1743
OBJECT_ID      = 1986-034A
CENTER_NAME    = EARTH
REF_FRAME      = TEME
TIME_SYSTEM    = UTC
MEAN_ELEMENT_THEORY = SGP/SGP4

EPOCH          = 2026-03-06T07:16:30.571104
MEAN_MOTION    = 15.58271388
ECCENTRICITY   = .00019037
INCLINATION    = 82.5295
RA_OF_ASC_NODE = 77.3847
ARG_OF_PERICENTER = 320.6210
MEAN_ANOMALY   = 39.4907

EPHEMERIS_TYPE = 0
CLASSIFICATION_TYPE = U
NORAD_CAT_ID   = 16719
ELEMENT_SET_NO = 999
REV_AT_EPOCH   = 17972
BSTAR          = .51578928E-3
MEAN_MOTION_DOT = .39175E-3
MEAN_MOTION_DDOT = 0

